ONEWEB-0166             
1 48065U 21025Z   25364.26121059  .00000119  00000+0  28985-3 0  9994
2 48065  87.8987 353.7659 0001725  93.4652 266.6674 13.13468880231470
ONEWEB-0151             
1 48066U 21025AA  25364.26290699  .00000159  00000+0  40161-3 0  9996
2 48066  87.8988 353.7921 0001632  82.7038 277.4277 13.13468364231410
ONEWEB-0170             
1 48067U 21025AB  25364.27136710  .00000277  00000+0  72362-3 0  9990
2 48067  87.8982 353.7946 0001944  73.2796 286.8547 13.13468210231373
ONEWEB-0168             
1 48068U 21025AC  25364.25613135 -.00000035  00000+0 -13064-3 0  9998
2 48068  87.8989 353.7838 0001572  90.7165 269.4144 13.13469191231382
ONEWEB-0173             
1 48069U 21025AD  25364.24766522 -.00000244  00000+0 -70253-3 0  9992
2 48069  87.8990 353.7931 0001312  86.8047 273.3232 13.13469023231629
ONEWEB-0171             
1 48070U 21025AE  25364.20873334  .00000257  00000+0  66912-3 0  9999
2 48070  87.8976 353.8207 0001665  83.1435 276.9883 13.13469025231436
ONEWEB-0172             
1 48071U 21025AF  25364.26459394  .00000271  00000+0  70811-3 0  9991
2 48071  87.8989 353.7941 0001598  83.8171 276.3140 13.13469284232331
ONEWEB-0174             
1 48072U 21025AG  25364.24597368 -.00000217  00000+0 -62801-3 0  9996
2 48072  87.8978 353.8004 0001737  92.2142 267.9187 13.13469757231654
ONEWEB-0175             
1 48073U 21025AH  25364.27644589  .00000254  00000+0  66106-3 0  9999
2 48073  87.8984 353.7649 0001661  75.2955 284.8359 13.13467914231310
ONEWEB-0177             
1 48074U 21025AJ  25364.21212037  .00000174  00000+0  44075-3 0  9995
2 48074  87.8988 353.7973 0001582  92.1046 268.0264 13.13468811231491
ONEWEB-0178             
1 48075U 21025AK  25364.23087467 -.00000279  00000+0 -79834-3 0  9994
2 48075  87.8977 353.8328 0001490  81.4782 278.6516 13.13467423231542
ONEWEB-0108             
1 48076U 21025AL  25364.26629700  .00000253  00000+0  65902-3 0  9991
2 48076  87.8986 353.7762 0001931  89.4882 270.6469 13.13469902231478
ONEWEB-0169             
1 48077U 21025AM  25364.22226345 -.00000124  00000+0 -37447-3 0  9998
2 48077  87.8982 353.8048 0001931  90.7725 269.3625 13.13467565230127
ONEWEB-0176             
1 48210U 21031A   25364.27363338  .00000115  00000+0  27539-3 0  9992
2 48210  87.9009 323.3556 0001654  78.1869 281.9446 13.14501243226123
ONEWEB-0184             
1 48211U 21031B   25364.17055026 -.00000040  00000+0 -14241-3 0  9999
2 48211  87.9015 323.3588 0001593  52.0543 308.0730 13.14501511226088
ONEWEB-0179             
1 48212U 21031C   25364.29344994 -.00000088  00000+0 -27102-3 0  9990
2 48212  87.9013 323.3414 0001639  88.6523 271.4795 13.14503751226148
