[{"OBJECT_NAME":"ONEWEB-0166","OBJECT_ID":"2021-025Z","EPOCH":"2025-12-30T06:16:08.594976","MEAN_MOTION":13.1346888,"ECCENTRICITY":0.00017257,"INCLINATION":87.8987,"RA_OF_ASC_NODE":353.7659,"ARG_OF_PERICENTER":93.4652,"MEAN_ANOMALY":266.6674,"EPHEMERIS_TYPE":0,"CLASSIFICATION_TYPE":"U","NORAD_CAT_ID":48065,"ELEMENT_SET_NO":999,"REV_AT_EPOCH":23147,"BSTAR":0.00028985191,"MEAN_MOTION_DOT":1.19e-6,"MEAN_MOTION_DDOT":0},{"OBJECT_NAME":"ONEWEB-0151","OBJECT_ID":"2021-025AA","EPOCH":"2025-12-30T06:18:35.163936","MEAN_MOTION":13.13468364,"ECCENTRICITY":0.00016322,"INCLINATION":87.8988,"RA_OF_ASC_NODE":353.7921,"ARG_OF_PERICENTER":82.7038,"MEAN_ANOMALY":277.4277,"EPHEMERIS_TYPE":0,"CLASSIFICATION_TYPE":"U","NORAD_CAT_ID":48066,"ELEMENT_SET_NO":999,"REV_AT_EPOCH":23141,"BSTAR":0.00040161177,"MEAN_MOTION_DOT":1.59e-6,"MEAN_MOTION_DDOT":0},{"OBJECT_NAME":"ONEWEB-0170","OBJECT_ID":"2021-025AB","EPOCH":"2025-12-30T06:30:46.117440","MEAN_MOTION":13.1346821,"ECCENTRICITY":0.00019447,"INCLINATION":87.8982,"RA_OF_ASC_NODE":353.7946,"ARG_OF_PERICENTER":73.2796,"MEAN_ANOMALY":286.8547,"EPHEMERIS_TYPE":0,"CLASSIFICATION_TYPE":"U","NORAD_CAT_ID":48067,"ELEMENT_SET_NO":999,"REV_AT_EPOCH":23137,"BSTAR":0.00072362497,"MEAN_MOTION_DOT":2.77e-6,"MEAN_MOTION_DDOT":0},{"OBJECT_NAME":"ONEWEB-0168","OBJECT_ID":"2021-025AC","EPOCH":"2025-12-30T06:08:49.748640","MEAN_MOTION":13.13469191,"ECCENTRICITY":0.0001572,"INCLINATION":87.8989,"RA_OF_ASC_NODE":353.7838,"ARG_OF_PERICENTER":90.7165,"MEAN_ANOMALY":269.4144,"EPHEMERIS_TYPE":0,"CLASSIFICATION_TYPE":"U","NORAD_CAT_ID":48068,"ELEMENT_SET_NO":999,"REV_AT_EPOCH":23138,"BSTAR":-0.00013063646,"MEAN_MOTION_DOT":-3.5e-7,"MEAN_MOTION_DDOT":0},{"OBJECT_NAME":"ONEWEB-0173","OBJECT_ID":"2021-025AD","EPOCH":"2025-12-30T05:56:38.275008","MEAN_MOTION":13.13469023,"ECCENTRICITY":0.00013128,"INCLINATION":87.899,"RA_OF_ASC_NODE":353.7931,"ARG_OF_PERICENTER":86.8047,"MEAN_ANOMALY":273.3232,"EPHEMERIS_TYPE":0,"CLASSIFICATION_TYPE":"U","NORAD_CAT_ID":48069,"ELEMENT_SET_NO":999,"REV_AT_EPOCH":23162,"BSTAR":-0.00070253477,"MEAN_MOTION_DOT":-2.44e-6,"MEAN_MOTION_DDOT":0},{"OBJECT_NAME":"ONEWEB-0171","OBJECT_ID":"2021-025AE","EPOCH":"2025-12-30T05:00:34.560576","MEAN_MOTION":13.13469025,"ECCENTRICITY":0.00016659,"INCLINATION":87.8976,"RA_OF_ASC_NODE":353.8207,"ARG_OF_PERICENTER":83.1435,"MEAN_ANOMALY":276.9883,"EPHEMERIS_TYPE":0,"CLASSIFICATION_TYPE":"U","NORAD_CAT_ID":48070,"ELEMENT_SET_NO":999,"REV_AT_EPOCH":23143,"BSTAR":0.00066912481,"MEAN_MOTION_DOT":2.57e-6,"MEAN_MOTION_DDOT":0},{"OBJECT_NAME":"ONEWEB-0172","OBJECT_ID":"2021-025AF","EPOCH":"2025-12-30T06:21:00.916416","MEAN_MOTION":13.13469284,"ECCENTRICITY":0.00015987,"INCLINATION":87.8989,"RA_OF_ASC_NODE":353.7941,"ARG_OF_PERICENTER":83.8171,"MEAN_ANOMALY":276.314,"EPHEMERIS_TYPE":0,"CLASSIFICATION_TYPE":"U","NORAD_CAT_ID":48071,"ELEMENT_SET_NO":999,"REV_AT_EPOCH":23233,"BSTAR":0.00070811163,"MEAN_MOTION_DOT":2.71e-6,"MEAN_MOTION_DDOT":0},{"OBJECT_NAME":"ONEWEB-0174","OBJECT_ID":"2021-025AG","EPOCH":"2025-12-30T05:54:12.125952","MEAN_MOTION":13.13469757,"ECCENTRICITY":0.00017375,"INCLINATION":87.8978,"RA_OF_ASC_NODE":353.8004,"ARG_OF_PERICENTER":92.2142,"MEAN_ANOMALY":267.9187,"EPHEMERIS_TYPE":0,"CLASSIFICATION_TYPE":"U","NORAD_CAT_ID":48072,"ELEMENT_SET_NO":999,"REV_AT_EPOCH":23165,"BSTAR":-0.00062801106,"MEAN_MOTION_DOT":-2.17e-6,"MEAN_MOTION_DDOT":0},{"OBJECT_NAME":"ONEWEB-0175","OBJECT_ID":"2021-025AH","EPOCH":"2025-12-30T06:38:04.924896","MEAN_MOTION":13.13467914,"ECCENTRICITY":0.00016619,"INCLINATION":87.8984,"RA_OF_ASC_NODE":353.7649,"ARG_OF_PERICENTER":75.2955,"MEAN_ANOMALY":284.8359,"EPHEMERIS_TYPE":0,"CLASSIFICATION_TYPE":"U","NORAD_CAT_ID":48073,"ELEMENT_SET_NO":999,"REV_AT_EPOCH":23131,"BSTAR":0.00066106225,"MEAN_MOTION_DOT":2.54e-6,"MEAN_MOTION_DDOT":0},{"OBJECT_NAME":"ONEWEB-0177","OBJECT_ID":"2021-025AJ","EPOCH":"2025-12-30T05:05:27.199968","MEAN_MOTION":13.13468811,"ECCENTRICITY":0.00015821,"INCLINATION":87.8988,"RA_OF_ASC_NODE":353.7973,"ARG_OF_PERICENTER":92.1046,"MEAN_ANOMALY":268.0264,"EPHEMERIS_TYPE":0,"CLASSIFICATION_TYPE":"U","NORAD_CAT_ID":48074,"ELEMENT_SET_NO":999,"REV_AT_EPOCH":23149,"BSTAR":0.00044074677,"MEAN_MOTION_DOT":1.74e-6,"MEAN_MOTION_DDOT":0},{"OBJECT_NAME":"ONEWEB-0178","OBJECT_ID":"2021-025AK","EPOCH":"2025-12-30T05:32:27.571488","MEAN_MOTION":13.13467423,"ECCENTRICITY":0.000149,"INCLINATION":87.8977,"RA_OF_ASC_NODE":353.8328,"ARG_OF_PERICENTER":81.4782,"MEAN_ANOMALY":278.6516,"EPHEMERIS_TYPE":0,"CLASSIFICATION_TYPE":"U","NORAD_CAT_ID":48075,"ELEMENT_SET_NO":999,"REV_AT_EPOCH":23154,"BSTAR":-0.0007983411,"MEAN_MOTION_DOT":-2.79e-6,"MEAN_MOTION_DDOT":0},{"OBJECT_NAME":"ONEWEB-0108","OBJECT_ID":"2021-025AL","EPOCH":"2025-12-30T06:23:28.060800","MEAN_MOTION":13.13469902,"ECCENTRICITY":0.00019317,"INCLINATION":87.8986,"RA_OF_ASC_NODE":353.7762,"ARG_OF_PERICENTER":89.4882,"MEAN_ANOMALY":270.6469,"EPHEMERIS_TYPE":0,"CLASSIFICATION_TYPE":"U","NORAD_CAT_ID":48076,"ELEMENT_SET_NO":999,"REV_AT_EPOCH":23147,"BSTAR":0.00065901867,"MEAN_MOTION_DOT":2.53e-6,"MEAN_MOTION_DDOT":0},{"OBJECT_NAME":"ONEWEB-0169","OBJECT_ID":"2021-025AM","EPOCH":"2025-12-30T05:20:03.562080","MEAN_MOTION":13.13467565,"ECCENTRICITY":0.00019315,"INCLINATION":87.8982,"RA_OF_ASC_NODE":353.8048,"ARG_OF_PERICENTER":90.7725,"MEAN_ANOMALY":269.3625,"EPHEMERIS_TYPE":0,"CLASSIFICATION_TYPE":"U","NORAD_CAT_ID":48077,"ELEMENT_SET_NO":999,"REV_AT_EPOCH":23012,"BSTAR":-0.00037447233,"MEAN_MOTION_DOT":-1.24e-6,"MEAN_MOTION_DDOT":0},{"OBJECT_NAME":"ONEWEB-0176","OBJECT_ID":"2021-031A","EPOCH":"2025-12-30T06:34:01.924032","MEAN_MOTION":13.14501243,"ECCENTRICITY":0.00016546,"INCLINATION":87.9009,"RA_OF_ASC_NODE":323.3556,"ARG_OF_PERICENTER":78.1869,"MEAN_ANOMALY":281.9446,"EPHEMERIS_TYPE":0,"CLASSIFICATION_TYPE":"U","NORAD_CAT_ID":48210,"ELEMENT_SET_NO":999,"REV_AT_EPOCH":22612,"BSTAR":0.00027539188,"MEAN_MOTION_DOT":1.15e-6,"MEAN_MOTION_DDOT":0},{"OBJECT_NAME":"ONEWEB-0184","OBJECT_ID":"2021-031B","EPOCH":"2025-12-30T04:05:35.542464","MEAN_MOTION":13.14501511,"ECCENTRICITY":0.00015937,"INCLINATION":87.9015,"RA_OF_ASC_NODE":323.3588,"ARG_OF_PERICENTER":52.0543,"MEAN_ANOMALY":308.073,"EPHEMERIS_TYPE":0,"CLASSIFICATION_TYPE":"U","NORAD_CAT_ID":48211,"ELEMENT_SET_NO":999,"REV_AT_EPOCH":22608,"BSTAR":-0.0001424113,"MEAN_MOTION_DOT":-4.0e-7,"MEAN_MOTION_DDOT":0},{"OBJECT_NAME":"ONEWEB-0179","OBJECT_ID":"2021-031C","EPOCH":"2025-12-30T07:02:34.074816","MEAN_MOTION":13.14503751,"ECCENTRICITY":0.00016396,"INCLINATION":87.9013,"RA_OF_ASC_NODE":323.3414,"ARG_OF_PERICENTER":88.6523,"MEAN_ANOMALY":271.4795,"EPHEMERIS_TYPE":0,"CLASSIFICATION_TYPE":"U","NORAD_CAT_ID":48212,"ELEMENT_SET_NO":999,"REV_AT_EPOCH":22614,"BSTAR":-0.00027101926,"MEAN_MOTION_DOT":-8.8e-7,"MEAN_MOTION_DDOT":0}]
